{
  "norad_id": 65997,
  "name": "HULIANWANG DIGUI-89",
  "history": [
    {
      "epoch": "2026-03-28T20:45:57.595680Z",
      "apogee_km": 1149.9010086819953,
      "perigee_km": 1148.6988770022235,
      "latitude_deg": 2.727832055138075e-05,
      "longitude_deg": -33.94672440262529,
      "height_km": 1149.5885529620807,
      "semi_major_axis_km": 7527.436942842109,
      "eccentricity": 7.985e-05,
      "inclination_deg": 49.9949,
      "raan_deg": 103.8228,
      "arg_perigee_deg": 291.2294,
      "mean_anomaly_deg": 68.8493,
      "mean_motion_rev_day": 13.29327756
    },
    {
      "epoch": "2026-03-29T03:58:59.572128Z",
      "apogee_km": 1149.8975118499566,
      "perigee_km": 1148.7021548808189,
      "latitude_deg": 1.8280230092584083e-05,
      "longitude_deg": -143.5801675998756,
      "height_km": 1149.5791672281387,
      "semi_major_axis_km": 7527.436833365387,
      "eccentricity": 7.94e-05,
      "inclination_deg": 49.9949,
      "raan_deg": 102.744,
      "arg_perigee_deg": 292.3127,
      "mean_anomaly_deg": 67.7661,
      "mean_motion_rev_day": 13.29327785
    },
    {
      "epoch": "2026-03-30T03:26:20.993856Z",
      "apogee_km": 1149.9032959516235,
      "perigee_km": 1148.6958951216993,
      "latitude_deg": 3.0444904331478255e-05,
      "longitude_deg": -139.88871571019808,
      "height_km": 1149.5375269620874,
      "semi_major_axis_km": 7527.436595536661,
      "eccentricity": 8.02e-05,
      "inclination_deg": 49.9951,
      "raan_deg": 99.238,
      "arg_perigee_deg": 296.3889,
      "mean_anomaly_deg": 63.6901,
      "mean_motion_rev_day": 13.29327848
    },
    {
      "epoch": "2026-03-30T07:02:51.978624Z",
      "apogee_km": 1149.9026668634397,
      "perigee_km": 1148.6961693543462,
      "latitude_deg": 2.874342435051132e-05,
      "longitude_deg": 165.29457962437857,
      "height_km": 1149.538073835495,
      "semi_major_axis_km": 7527.436418108893,
      "eccentricity": 8.014e-05,
      "inclination_deg": 49.9951,
      "raan_deg": 98.6986,
      "arg_perigee_deg": 296.3334,
      "mean_anomaly_deg": 63.7456,
      "mean_motion_rev_day": 13.29327895
    },
    {
      "epoch": "2026-03-30T12:27:38.460960Z",
      "apogee_km": 1149.9042665018978,
      "perigee_km": 1148.6946074664747,
      "latitude_deg": -1.651467360389875e-05,
      "longitude_deg": 83.0694653089328,
      "height_km": 1149.5269611606361,
      "semi_major_axis_km": 7527.436436984186,
      "eccentricity": 8.035e-05,
      "inclination_deg": 49.9951,
      "raan_deg": 97.8895,
      "arg_perigee_deg": 297.4413,
      "mean_anomaly_deg": 62.6377,
      "mean_motion_rev_day": 13.2932789
    },
    {
      "epoch": "2026-03-30T23:17:11.417856Z",
      "apogee_km": 1149.9090911460944,
      "perigee_km": 1148.689495917817,
      "latitude_deg": 2.1312286166705545e-05,
      "longitude_deg": -81.38052367036723,
      "height_km": 1149.5100315330728,
      "semi_major_axis_km": 7527.436293531956,
      "eccentricity": 8.101e-05,
      "inclination_deg": 49.9951,
      "raan_deg": 96.2714,
      "arg_perigee_deg": 298.9862,
      "mean_anomaly_deg": 61.0929,
      "mean_motion_rev_day": 13.29327928
    },
    {
      "epoch": "2026-03-31T19:08:01.832352Z",
      "apogee_km": 1149.912950927096,
      "perigee_km": 1148.6844734188708,
      "latitude_deg": 1.4785895558023766e-05,
      "longitude_deg": -22.87228954816661,
      "height_km": 1149.477515106859,
      "semi_major_axis_km": 7527.435712172984,
      "eccentricity": 8.16e-05,
      "inclination_deg": 49.9952,
      "raan_deg": 93.3048,
      "arg_perigee_deg": 302.2135,
      "mean_anomaly_deg": 57.8658,
      "mean_motion_rev_day": 13.29328082
    },
    {
      "epoch": "2026-04-01T18:35:23.227296Z",
      "apogee_km": 1149.9164503692155,
      "perigee_km": 1148.680445468668,
      "latitude_deg": -5.117200986438882e-05,
      "longitude_deg": -19.180790332182294,
      "height_km": 1149.4427116415443,
      "semi_major_axis_km": 7527.4354479189415,
      "eccentricity": 8.21e-05,
      "inclination_deg": 49.9954,
      "raan_deg": 89.7988,
      "arg_perigee_deg": 305.8541,
      "mean_anomaly_deg": 54.2254,
      "mean_motion_rev_day": 13.29328152
    }
  ]
}